GSAT0216 (GALILEO 20)   
1 43056U 17079B   26177.10544658  .00000062  00000+0  00000+0 0  9994
2 43056  55.0717 221.2611 0004659 276.6161  83.4222  1.70474721 53151
GSAT0217 (GALILEO 21)   
1 43057U 17079C   26177.32624419  .00000063  00000+0  00000+0 0  9994
2 43057  55.0685 221.2528 0003945 287.8828  72.1663  1.70474719 53144
GSAT0218 (GALILEO 22)   
1 43058U 17079D   26171.68048465  .00000026  00000+0  00000+0 0  9998
2 43058  55.0711 221.4058 0005507 273.6284  86.3834  1.70474354 53074
BEIDOU-3 M7             
1 43107U 18003A   26177.47885264 -.00000101  00000+0  00000+0 0  9995
2 43107  54.3190 301.9902 0004924  95.0788 264.9711  1.86228221 57520
BEIDOU-3 M8             
1 43108U 18003B   26177.42347806 -.00000102  00000+0  00000+0 0  9997
2 43108  54.3115 301.9738 0002413 260.4208  99.5455  1.86231146 57539
BEIDOU-3 M4             
1 43207U 18018A   26176.79262565 -.00000089  00000+0  00000+0 0  9994
2 43207  56.6586  62.8641 0007547  21.9749 338.0980  1.86231340 56905
BEIDOU-3 M3             
1 43208U 18018B   26175.24823940 -.00000095  00000+0  00000+0 0  9991
2 43208  56.6570  62.9189 0008331 342.5104  17.4973  1.86231188 56872
BEIDOU-3 M9             
1 43245U 18029A   26176.54001984 -.00000104  00000+0  00000+0 0  9995
2 43245  54.1853 299.6556 0000940 160.1846 199.8137  1.86228508 56051
BEIDOU-3 M10            
1 43246U 18029B   26177.54825259 -.00000098  00000+0  00000+0 0  9998
2 43246  54.1821 299.6470 0003809  41.5678 318.4573  1.86229311 56050
IRNSS-1I                
1 43286U 18035A   26175.79975266  .00000066  00000+0  00000+0 0  9992
2 43286  28.7725  74.0767 0017621 182.3144 359.3363  1.00275960 30158
COSMOS 2527 [GLONASS-M] 
1 43508U 18053A   26177.00066066 -.00000062  00000+0  00000+0 0  9991
2 43508  65.5828  73.6132 0006873 236.8993 123.0709  2.13102108 62460
BEIDOU-2 IGSO-7         
1 43539U 18057A   26177.50590209 -.00000028  00000+0  00000+0 0  9997
2 43539  55.1970 162.9757 0104768 237.9790 164.9478  1.00249004 29227
GSAT0221 (GALILEO 25)   
1 43564U 18060A   26177.45031272 -.00000095  00000+0  00000+0 0  9997
2 43564  57.1663 341.5303 0002518 298.4226  61.5466  1.70476262 49321
GSAT0222 (GALILEO 26)   
1 43565U 18060B   26176.49681494 -.00000097  00000+0  00000+0 0  9990
2 43565  57.1695 341.5596 0002086 244.5899 115.3843  1.70476000 49359
GSAT0219 (GALILEO 23)   
1 43566U 18060C   26177.30427826 -.00000096  00000+0  00000+0 0  9998
2 43566  57.1694 341.5394 0001792 314.3403  45.6398  1.70476218 49345
GSAT0220 (GALILEO 24)   
1 43567U 18060D   26177.52527587 -.00000095  00000+0  00000+0 0  9997
2 43567  57.1682 341.5331 0001925 306.9485  53.0284  1.70476256 49337
BEIDOU-3 M5             
1 43581U 18062A   26177.23533584  .00000097  00000+0  00000+0 0  9998
2 43581  54.0859 181.9962 0005829 291.5726  68.3953  1.86228770 53807
BEIDOU-3 M6             
1 43582U 18062B   26177.09884921  .00000098  00000+0  00000+0 0  9998
2 43582  54.0857 181.9897 0005057   9.2241 350.8155  1.86228182 53802
BEIDOU-3 M12            
1 43602U 18067A   26177.03726485  .00000098  00000+0  00000+0 0  9990
2 43602  54.1810 180.7397 0007828  29.5974 330.4748  1.86227758 53285
BEIDOU-3 M11            
1 43603U 18067B   26177.17235314  .00000097  00000+0  00000+0 0  9991
2 43603  54.1781 180.6987 0004573  12.4630 347.5758  1.86227233 53313
BEIDOU-3 M13            
1 43622U 18072A   26177.12714117 -.00000087  00000+0  00000+0 0  9996
2 43622  56.6328  62.3641 0007050 330.4803  29.5224  1.86231341 52824
BEIDOU-3 M14            
1 43623U 18072B   26176.99258439 -.00000088  00000+0  00000+0 0  9992
2 43623  56.6345  62.3631 0006093   4.7501 355.2976  1.86231224 52817
BEIDOU-3 M16            
1 43647U 18078A   26173.92607756 -.00000107  00000+0  00000+0 0  9996
2 43647  54.0842 299.7848 0007075  40.9359 319.1123  1.86232370 52262
BEIDOU-3 M15            
1 43648U 18078B   26177.27704184 -.00000100  00000+0  00000+0 0  9995
2 43648  54.0766 299.6676 0003991  57.9517 302.0826  1.86232565 52349
BEIDOU-3 G1             
1 43683U 18085A   26177.76855404 -.00000100  00000+0  00000+0 0  9998
2 43683   2.8930  97.1153 0008533 351.5898 262.7888  1.00271021 28153
COSMOS 2529 [GLONASS-M] 
1 43687U 18086A   26177.09708310  .00000106  00000+0  00000+0 0  9997
2 43687  64.2953 192.2935 0012114 256.4695 103.4491  2.13102017 59470
BEIDOU-3 M17            
1 43706U 18093A   26177.50233032  .00000095  00000+0  00000+0 0  9994
2 43706  54.1697 181.9800 0010136 292.4713 110.1482  1.86228594 51716
BEIDOU-3 M18            
1 43707U 18093B   26177.30216318  .00000097  00000+0  00000+0 0  9993
2 43707  54.1702 181.9788 0008135 321.1510  38.8204  1.86226640 51707
NAVSTAR 77 (USA 289)    
1 43873U 18109A   26177.15649352 -.00000064  00000+0  00000+0 0  9991
2 43873  55.6873  91.8327 0038420 197.7328 282.2646  2.00562253 55257
BEIDOU-3 IGSO-1         
1 44204U 19023A   26175.54148515 -.00000226  00000+0  00000+0 0  9992
2 44204  58.7053  37.5725 0025747 224.9564 323.4804  1.00289953  7288
BEIDOU-2 G8             
1 44231U 19027A   26177.97941821 -.00000238  00000+0  00000+0 0  9999
2 44231   1.6833  74.5238 0009896 284.9396  52.7041  1.00268816 26176
